0 DELTA 1 DEB
1 18779U 78026HJ  13282.57599556  .00001401  00000-0  75569-3 0   725
2 18779 099.0782 143.7474 0091770 074.9396 286.1905 14.12262606335463
0 DELTA 1 DEB
1 18779U 78026HJ  13286.14314061  .00001559  00000-0  83711-3 0   742
2 18779 099.0749 147.3646 0092609 064.9808 062.0909 14.12279898335978
0 DELTA 1 DEB
1 18779U 78026HJ  13288.47915691  .00002382  00000-0  12663-2 0   759
2 18779 099.0744 149.7302 0092650 058.4916 058.8289 14.12289259336306
0 DELTA 1 DEB
1 18779U 78026HJ  13290.58731670  .00002132  00000-0  11358-2 0   761
2 18779 099.0741 151.8649 0092679 052.6392 337.1671 14.12297962336607
0 DELTA 1 DEB
1 18779U 78026HJ  13293.09187075  .00002179  00000-0  11600-2 0   776
2 18779 099.0740 154.4010 0092707 045.6883 110.9385 14.12307978336952
0 DELTA 1 DEB
1 18779U 78026HJ  13295.14051282  .00002535  00000-0  13451-2 0   787
2 18779 099.0737 156.4746 0092736 039.9435 086.8794 14.12316342337240
